{
  "type": "FeatureCollection",
  "features": [
    {
      "type": "Feature",
      "properties": {
        "norad_id": 34816,
        "name": "COSMOS 2251 DEB",
        "group": "cosmos-2251-debris",
        "lat": 27.434765052673768,
        "lon": -68.59953614780872,
        "alt_km": 799.7681532848655,
        "timestamp": "2025-12-26T21:25:53.404707+00:00",
        "meta_object_name": "COSMOS 2251 DEB",
        "meta_object_id": "1993-036ABF",
        "meta_epoch": "2025-12-25T01:06:13.254336",
        "meta_mean_motion": 13.58358364,
        "meta_eccentricity": 0.03729236,
        "meta_inclination": 73.8874,
        "meta_ra_of_asc_node": 123.043,
        "meta_arg_of_pericenter": 185.3949,
        "meta_mean_anomaly": 299.3527,
        "meta_ephemeris_type": 0,
        "meta_classification_type": "U",
        "meta_norad_cat_id": 34816,
        "meta_element_set_no": 999,
        "meta_rev_at_epoch": 82950,
        "meta_bstar": 0.0014772062,
        "meta_mean_motion_dot": 1.67e-05,
        "meta_mean_motion_ddot": 0,
        "tle_line1": "1 34816U 93036ABF 25359.04598674  .00001670  00000+0  14772-2 0  9996",
        "tle_line2": "2 34816  73.8874 123.0430 0372923 185.3949 299.3527 13.58358364829506"
      },
      "geometry": {
        "type": "Point",
        "coordinates": [
          -68.59953614780872,
          27.434765052673768
        ]
      }
    },
    {
      "type": "Feature",
      "properties": {
        "norad_id": 34818,
        "name": "COSMOS 2251 DEB",
        "group": "cosmos-2251-debris",
        "lat": 18.42943374184631,
        "lon": 85.44387431950798,
        "alt_km": 786.0555078111984,
        "timestamp": "2025-12-26T21:25:53.404717+00:00",
        "meta_object_name": "COSMOS 2251 DEB",
        "meta_object_id": "1993-036ABH",
        "meta_epoch": "2025-12-26T04:41:15.553824",
        "meta_mean_motion": 14.36982494,
        "meta_eccentricity": 0.00246969,
        "meta_inclination": 74.0365,
        "meta_ra_of_asc_node": 272.1995,
        "meta_arg_of_pericenter": 344.861,
        "meta_mean_anomaly": 168.1819,
        "meta_ephemeris_type": 0,
        "meta_classification_type": "U",
        "meta_norad_cat_id": 34818,
        "meta_element_set_no": 999,
        "meta_rev_at_epoch": 87563,
        "meta_bstar": 0.00018428348,
        "meta_mean_motion_dot": 5.22e-06,
        "meta_mean_motion_ddot": 0,
        "tle_line1": "1 34818U 93036ABH 25360.19531891  .00000522  00000+0  18428-3 0  9992",
        "tle_line2": "2 34818  74.0365 272.1995 0024696 344.8610 168.1819 14.36982494875632"
      },
      "geometry": {
        "type": "Point",
        "coordinates": [
          85.44387431950798,
          18.42943374184631
        ]
      }
    },
    {
      "type": "Feature",
      "properties": {
        "norad_id": 34819,
        "name": "COSMOS 2251 DEB",
        "group": "cosmos-2251-debris",
        "lat": 17.061779708831132,
        "lon": 120.4946985361739,
        "alt_km": 690.4010538183702,
        "timestamp": "2025-12-26T21:25:53.404727+00:00",
        "meta_object_name": "COSMOS 2251 DEB",
        "meta_object_id": "1993-036ABJ",
        "meta_epoch": "2025-12-25T01:52:59.959200",
        "meta_mean_motion": 14.64149943,
        "meta_eccentricity": 0.00152489,
        "meta_inclination": 74.0188,
        "meta_ra_of_asc_node": 118.9364,
        "meta_arg_of_pericenter": 214.0486,
        "meta_mean_anomaly": 323.4712,
        "meta_ephemeris_type": 0,
        "meta_classification_type": "U",
        "meta_norad_cat_id": 34819,
        "meta_element_set_no": 999,
        "meta_rev_at_epoch": 88409,
        "meta_bstar": 0.0016705691,
        "meta_mean_motion_dot": 8.78e-05,
        "meta_mean_motion_ddot": 0,
        "tle_line1": "1 34819U 93036ABJ 25359.07847175  .00008780  00000+0  16706-2 0  9993",
        "tle_line2": "2 34819  74.0188 118.9364 0015248 214.0486 323.4712 14.64149943884098"
      },
      "geometry": {
        "type": "Point",
        "coordinates": [
          120.4946985361739,
          17.061779708831132
        ]
      }
    },
    {
      "type": "Feature",
      "properties": {
        "norad_id": 34823,
        "name": "COSMOS 2251 DEB",
        "group": "cosmos-2251-debris",
        "lat": -36.08390424519726,
        "lon": 63.44923004128499,
        "alt_km": 820.7368108268092,
        "timestamp": "2025-12-26T21:25:53.404738+00:00",
        "meta_object_name": "COSMOS 2251 DEB",
        "meta_object_id": "1993-036ABN",
        "meta_epoch": "2025-12-26T11:42:32.488128",
        "meta_mean_motion": 14.55010341,
        "meta_eccentricity": 0.01537281,
        "meta_inclination": 74.0413,
        "meta_ra_of_asc_node": 76.2529,
        "meta_arg_of_pericenter": 157.5797,
        "meta_mean_anomaly": 203.2183,
        "meta_ephemeris_type": 0,
        "meta_classification_type": "U",
        "meta_norad_cat_id": 34823,
        "meta_element_set_no": 999,
        "meta_rev_at_epoch": 88581,
        "meta_bstar": 0.00050777633,
        "meta_mean_motion_dot": 2.532e-05,
        "meta_mean_motion_ddot": 0,
        "tle_line1": "1 34823U 93036ABN 25360.48787602  .00002532  00000+0  50778-3 0  9990",
        "tle_line2": "2 34823  74.0413  76.2529 0153728 157.5797 203.2183 14.55010341885812"
      },
      "geometry": {
        "type": "Point",
        "coordinates": [
          63.44923004128499,
          -36.08390424519726
        ]
      }
    },
    {
      "type": "Feature",
      "properties": {
        "norad_id": 34845,
        "name": "COSMOS 2251 DEB",
        "group": "cosmos-2251-debris",
        "lat": -6.456374588512485,
        "lon": -56.20862676212575,
        "alt_km": 743.6230136730483,
        "timestamp": "2025-12-26T21:25:53.404748+00:00",
        "meta_object_name": "COSMOS 2251 DEB",
        "meta_object_id": "1993-036ABP",
        "meta_epoch": "2025-12-24T15:25:52.110336",
        "meta_mean_motion": 14.4588243,
        "meta_eccentricity": 0.00226897,
        "meta_inclination": 74.0249,
        "meta_ra_of_asc_node": 126.132,
        "meta_arg_of_pericenter": 285.329,
        "meta_mean_anomaly": 74.5361,
        "meta_ephemeris_type": 0,
        "meta_classification_type": "U",
        "meta_norad_cat_id": 34845,
        "meta_element_set_no": 999,
        "meta_rev_at_epoch": 87638,
        "meta_bstar": 0.00029040944,
        "meta_mean_motion_dot": 1.008e-05,
        "meta_mean_motion_ddot": 0,
        "tle_line1": "1 34845U 93036ABP 25358.64296424  .00001008  00000+0  29041-3 0  9992",
        "tle_line2": "2 34845  74.0249 126.1320 0022689 285.3290  74.5361 14.45882430876380"
      },
      "geometry": {
        "type": "Point",
        "coordinates": [
          -56.20862676212575,
          -6.456374588512485
        ]
      }
    },
    {
      "type": "Feature",
      "properties": {
        "norad_id": 34846,
        "name": "COSMOS 2251 DEB",
        "group": "cosmos-2251-debris",
        "lat": -15.52046670138671,
        "lon": 59.868613451972955,
        "alt_km": 743.3424548623043,
        "timestamp": "2025-12-26T21:25:53.404758+00:00",
        "meta_object_name": "COSMOS 2251 DEB",
        "meta_object_id": "1993-036ABQ",
        "meta_epoch": "2025-12-26T10:34:20.635968",
        "meta_mean_motion": 14.4728744,
        "meta_eccentricity": 0.00262268,
        "meta_inclination": 74.0297,
        "meta_ra_of_asc_node": 236.1531,
        "meta_arg_of_pericenter": 300.8641,
        "meta_mean_anomaly": 58.9938,
        "meta_ephemeris_type": 0,
        "meta_classification_type": "U",
        "meta_norad_cat_id": 34846,
        "meta_element_set_no": 999,
        "meta_rev_at_epoch": 87602,
        "meta_bstar": 0.00069470337,
        "meta_mean_motion_dot": 2.526e-05,
        "meta_mean_motion_ddot": 0,
        "tle_line1": "1 34846U 93036ABQ 25360.44051662  .00002526  00000+0  69470-3 0  9993",
        "tle_line2": "2 34846  74.0297 236.1531 0026226 300.8641  58.9938 14.47287440876023"
      },
      "geometry": {
        "type": "Point",
        "coordinates": [
          59.868613451972955,
          -15.52046670138671
        ]
      }
    },
    {
      "type": "Feature",
      "properties": {
        "norad_id": 34852,
        "name": "COSMOS 2251 DEB",
        "group": "cosmos-2251-debris",
        "lat": 70.59625475883675,
        "lon": 2.5663440966369397,
        "alt_km": 767.8659083990833,
        "timestamp": "2025-12-26T21:25:53.404768+00:00",
        "meta_object_name": "COSMOS 2251 DEB",
        "meta_object_id": "1993-036ABW",
        "meta_epoch": "2025-12-24T08:48:51.292512",
        "meta_mean_motion": 14.37013481,
        "meta_eccentricity": 0.00167051,
        "meta_inclination": 74.0323,
        "meta_ra_of_asc_node": 241.5883,
        "meta_arg_of_pericenter": 342.3569,
        "meta_mean_anomaly": 17.7002,
        "meta_ephemeris_type": 0,
        "meta_classification_type": "U",
        "meta_norad_cat_id": 34852,
        "meta_element_set_no": 999,
        "meta_rev_at_epoch": 87701,
        "meta_bstar": 0.00010991472,
        "meta_mean_motion_dot": 3e-06,
        "meta_mean_motion_ddot": 0,
        "tle_line1": "1 34852U 93036ABW 25358.36726033  .00000300  00000+0  10991-3 0  9991",
        "tle_line2": "2 34852  74.0323 241.5883 0016705 342.3569  17.7002 14.37013481877017"
      },
      "geometry": {
        "type": "Point",
        "coordinates": [
          2.5663440966369397,
          70.59625475883675
        ]
      }
    }
  ]
}